{
  "type": "FeatureCollection",
  "name": "Indian_Strategic_Industrial_Corridors",
  "crs": {
    "type": "name",
    "properties": {
      "name": "urn:ogc:def:crs:OGC:1.3:CRS84"
    }
  },
  "features": [
    {
      "type": "Feature",
      "geometry": {
        "type": "Polygon",
        "coordinates": [
          [
            [
              70.08352252252253,
              22.4707
            ],
            [
              70.07692342342344,
              22.486623423423424
            ],
            [
              70.061,
              22.493222522522522
            ],
            [
              70.04507657657658,
              22.486623423423424
            ],
            [
              70.03847747747749,
              22.4707
            ],
            [
              70.04507657657658,
              22.454776576576577
            ],
            [
              70.061,
              22.44817747747748
            ],
            [
              70.07692342342344,
              22.454776576576577
            ],
            [
              70.08352252252253,
              22.4707
            ]
          ]
        ]
      },
      "properties": {
        "name": "Reliance Jamnagar Refinery Complex",
        "category": "refinery",
        "source": "VIIRS_Nightfire/WorldBank",
        "center": [
          70.061,
          22.4707
        ],
        "h3_res8": "8842c0566dfffff",
        "buffer_radius_meters": 2500.0,
        "description": "World's largest petroleum refining complex (DTA + SEZ)",
        "capacity_bpd": 1240000,
        "corridor": "Western_Gujarat",
        "primary_emitters": [
          "crude_distillation",
          "coker",
          "flare_stack_north",
          "flare_stack_south"
        ],
        "expected_baseline_frp_mw": 85.0
      }
    },
    {
      "type": "Feature",
      "geometry": {
        "type": "Polygon",
        "coordinates": [
          [
            [
              69.73721621621623,
              22.423
            ],
            [
              69.73246486486487,
              22.434464864864864
            ],
            [
              69.721,
              22.439216216216213
            ],
            [
              69.70953513513514,
              22.434464864864864
            ],
            [
              69.70478378378378,
              22.423
            ],
            [
              69.70953513513514,
              22.411535135135132
            ],
            [
              69.721,
              22.406783783783784
            ],
            [
              69.73246486486487,
              22.411535135135132
            ],
            [
              69.73721621621623,
              22.423
            ]
          ]
        ]
      },
      "properties": {
        "name": "Nayara Energy Vadinar Refinery",
        "category": "refinery",
        "source": "VIIRS_Nightfire",
        "center": [
          69.721,
          22.423
        ],
        "h3_res8": "8842c63687fffff",
        "buffer_radius_meters": 1800.0,
        "description": "Vadinar complex second-largest single-site refinery in India",
        "capacity_bpd": 400000,
        "corridor": "Western_Gujarat",
        "expected_baseline_frp_mw": 45.0
      }
    },
    {
      "type": "Feature",
      "geometry": {
        "type": "Polygon",
        "coordinates": [
          [
            [
              72.65261081081081,
              21.1444
            ],
            [
              72.64944324324324,
              21.152043243243245
            ],
            [
              72.6418,
              21.15521081081081
            ],
            [
              72.63415675675677,
              21.152043243243245
            ],
            [
              72.6309891891892,
              21.1444
            ],
            [
              72.63415675675677,
              21.136756756756757
            ],
            [
              72.6418,
              21.13358918918919
            ],
            [
              72.64944324324324,
              21.136756756756757
            ],
            [
              72.65261081081081,
              21.1444
            ]
          ]
        ]
      },
      "properties": {
        "name": "ONGC Hazira Gas Processing Plant",
        "category": "gas_flare",
        "source": "VIIRS_Nightfire/GGFR",
        "center": [
          72.6418,
          21.1444
        ],
        "h3_res8": "8842dd6d35fffff",
        "buffer_radius_meters": 1200.0,
        "description": "India's largest sour gas processing facility with permanent flare stacks",
        "corridor": "Western_Gujarat",
        "type": "sour_gas_sweetening_flare",
        "expected_baseline_frp_mw": 35.0
      }
    },
    {
      "type": "Feature",
      "geometry": {
        "type": "Polygon",
        "coordinates": [
          [
            [
              72.59701351351352,
              21.7052
            ],
            [
              72.59305405405405,
              21.714754054054055
            ],
            [
              72.5835,
              21.718713513513514
            ],
            [
              72.57394594594595,
              21.714754054054055
            ],
            [
              72.56998648648648,
              21.7052
            ],
            [
              72.57394594594595,
              21.695645945945948
            ],
            [
              72.5835,
              21.69168648648649
            ],
            [
              72.59305405405405,
              21.695645945945948
            ],
            [
              72.59701351351352,
              21.7052
            ]
          ]
        ]
      },
      "properties": {
        "name": "Dahej Petrochemical Complex (OPaL)",
        "category": "petrochemical",
        "source": "OSM_Industrial",
        "center": [
          72.5835,
          21.7052
        ],
        "h3_res8": "8842dd30ebfffff",
        "buffer_radius_meters": 1500.0,
        "description": "ONGC Petro additions Limited mega-dual feed cracker",
        "corridor": "Western_Gujarat",
        "type": "steam_cracker_flare",
        "expected_baseline_frp_mw": 50.0
      }
    },
    {
      "type": "Feature",
      "geometry": {
        "type": "Polygon",
        "coordinates": [
          [
            [
              72.91231351351351,
              19.0065
            ],
            [
              72.90835405405404,
              19.016054054054052
            ],
            [
              72.8988,
              19.02001351351351
            ],
            [
              72.88924594594594,
              19.016054054054052
            ],
            [
              72.88528648648648,
              19.0065
            ],
            [
              72.88924594594594,
              18.996945945945946
            ],
            [
              72.8988,
              18.992986486486487
            ],
            [
              72.90835405405404,
              18.996945945945946
            ],
            [
              72.91231351351351,
              19.0065
            ]
          ]
        ]
      },
      "properties": {
        "name": "BPCL & HPCL Mumbai Trombay Refineries",
        "category": "refinery",
        "source": "VIIRS_Nightfire",
        "center": [
          72.8988,
          19.0065
        ],
        "h3_res8": "88608b19c1fffff",
        "buffer_radius_meters": 1500.0,
        "description": "Urban coastal refining hub with regulated marine flare systems",
        "corridor": "Western_Maharashtra",
        "expected_baseline_frp_mw": 30.0
      }
    },
    {
      "type": "Feature",
      "geometry": {
        "type": "Polygon",
        "coordinates": [
          [
            [
              71.350018018018,
              19.418
            ],
            [
              71.34473873873873,
              19.43073873873874
            ],
            [
              71.332,
              19.436018018018018
            ],
            [
              71.31926126126126,
              19.43073873873874
            ],
            [
              71.31398198198198,
              19.418
            ],
            [
              71.31926126126126,
              19.40526126126126
            ],
            [
              71.332,
              19.39998198198198
            ],
            [
              71.34473873873873,
              19.40526126126126
            ],
            [
              71.350018018018,
              19.418
            ]
          ]
        ]
      },
      "properties": {
        "name": "ONGC Mumbai High Offshore Flaring Platform (North)",
        "category": "gas_flare",
        "source": "VIIRS_Nightfire/GGFR",
        "center": [
          71.332,
          19.418
        ],
        "h3_res8": "8860d2506bfffff",
        "buffer_radius_meters": 2000.0,
        "description": "Offshore crude extraction continuous associated gas flare",
        "corridor": "Offshore_ArabianSea",
        "offshore": true,
        "expected_baseline_frp_mw": 110.0
      }
    },
    {
      "type": "Feature",
      "geometry": {
        "type": "Polygon",
        "coordinates": [
          [
            [
              86.22091801801801,
              22.7845
            ],
            [
              86.21563873873873,
              22.79723873873874
            ],
            [
              86.2029,
              22.80251801801802
            ],
            [
              86.19016126126127,
              22.79723873873874
            ],
            [
              86.18488198198199,
              22.7845
            ],
            [
              86.19016126126127,
              22.77176126126126
            ],
            [
              86.2029,
              22.766481981981983
            ],
            [
              86.21563873873873,
              22.77176126126126
            ],
            [
              86.22091801801801,
              22.7845
            ]
          ]
        ]
      },
      "properties": {
        "name": "Tata Steel Jamshedpur Works",
        "category": "steel_mill",
        "source": "OSM_Industrial",
        "center": [
          86.2029,
          22.7845
        ],
        "h3_res8": "883cabc1a9fffff",
        "buffer_radius_meters": 2000.0,
        "description": "Integrated steel plant with multiple blast furnaces and coke ovens",
        "corridor": "Eastern_Jharkhand",
        "facilities": [
          "blast_furnaces_H_I",
          "coke_ovens",
          "sinter_plant"
        ],
        "expected_baseline_frp_mw": 60.0
      }
    },
    {
      "type": "Feature",
      "geometry": {
        "type": "Polygon",
        "coordinates": [
          [
            [
              84.88701801801801,
              22.2155
            ],
            [
              84.88173873873873,
              22.22823873873874
            ],
            [
              84.869,
              22.233518018018017
            ],
            [
              84.85626126126127,
              22.22823873873874
            ],
            [
              84.85098198198199,
              22.2155
            ],
            [
              84.85626126126127,
              22.20276126126126
            ],
            [
              84.869,
              22.19748198198198
            ],
            [
              84.88173873873873,
              22.20276126126126
            ],
            [
              84.88701801801801,
              22.2155
            ]
          ]
        ]
      },
      "properties": {
        "name": "SAIL Rourkela Steel Plant",
        "category": "steel_mill",
        "source": "OSM_Industrial",
        "center": [
          84.869,
          22.2155
        ],
        "h3_res8": "883c8535b7fffff",
        "buffer_radius_meters": 2000.0,
        "description": "Integrated steel complex with active basic oxygen furnaces",
        "corridor": "Eastern_Odisha",
        "facilities": [
          "blast_furnace_5",
          "sms_2"
        ],
        "expected_baseline_frp_mw": 55.0
      }
    },
    {
      "type": "Feature",
      "geometry": {
        "type": "Polygon",
        "coordinates": [
          [
            [
              86.17091981981982,
              23.6693
            ],
            [
              86.16511261261262,
              23.683312612612614
            ],
            [
              86.1511,
              23.68911981981982
            ],
            [
              86.13708738738738,
              23.683312612612614
            ],
            [
              86.13128018018018,
              23.6693
            ],
            [
              86.13708738738738,
              23.655287387387386
            ],
            [
              86.1511,
              23.64948018018018
            ],
            [
              86.16511261261262,
              23.655287387387386
            ],
            [
              86.17091981981982,
              23.6693
            ]
          ]
        ]
      },
      "properties": {
        "name": "SAIL Bokaro Steel Plant",
        "category": "steel_mill",
        "source": "OSM_Industrial",
        "center": [
          86.1511,
          23.6693
        ],
        "h3_res8": "883ca830a9fffff",
        "buffer_radius_meters": 2200.0,
        "description": "Large metallurgical complex with 5 blast furnaces",
        "corridor": "Eastern_Jharkhand",
        "expected_baseline_frp_mw": 70.0
      }
    },
    {
      "type": "Feature",
      "geometry": {
        "type": "Polygon",
        "coordinates": [
          [
            [
              81.41181981981981,
              21.1824
            ],
            [
              81.40601261261261,
              21.196412612612615
            ],
            [
              81.392,
              21.20221981981982
            ],
            [
              81.37798738738738,
              21.196412612612615
            ],
            [
              81.37218018018018,
              21.1824
            ],
            [
              81.37798738738738,
              21.168387387387387
            ],
            [
              81.392,
              21.162580180180182
            ],
            [
              81.40601261261261,
              21.168387387387387
            ],
            [
              81.41181981981981,
              21.1824
            ]
          ]
        ]
      },
      "properties": {
        "name": "SAIL Bhilai Steel Plant",
        "category": "steel_mill",
        "source": "OSM_Industrial",
        "center": [
          81.392,
          21.1824
        ],
        "h3_res8": "883cb0371bfffff",
        "buffer_radius_meters": 2200.0,
        "description": "India's sole producer of rails and heavy steel plates",
        "corridor": "Central_Chhattisgarh",
        "expected_baseline_frp_mw": 65.0
      }
    },
    {
      "type": "Feature",
      "geometry": {
        "type": "Polygon",
        "coordinates": [
          [
            [
              86.44873153153152,
              23.7432
            ],
            [
              86.43949279279279,
              23.765492792792795
            ],
            [
              86.4172,
              23.774731531531533
            ],
            [
              86.3949072072072,
              23.765492792792795
            ],
            [
              86.38566846846847,
              23.7432
            ],
            [
              86.3949072072072,
              23.72090720720721
            ],
            [
              86.4172,
              23.71166846846847
            ],
            [
              86.43949279279279,
              23.72090720720721
            ],
            [
              86.44873153153152,
              23.7432
            ]
          ]
        ]
      },
      "properties": {
        "name": "Jharia Coalfield Persistent Subsurface Fire Zone",
        "category": "coal_seam_fire",
        "source": "satellite_historic",
        "center": [
          86.4172,
          23.7432
        ],
        "h3_res8": "883ca9c91bfffff",
        "buffer_radius_meters": 3500.0,
        "description": "Century-old underground and open-cast coal fires with persistent high thermal output",
        "corridor": "Eastern_Jharkhand",
        "thermal_type": "continuous_coal_combustion",
        "expected_baseline_frp_mw": 90.0
      }
    },
    {
      "type": "Feature",
      "geometry": {
        "type": "Polygon",
        "coordinates": [
          [
            [
              82.69551351351352,
              24.103
            ],
            [
              82.69155405405405,
              24.112554054054055
            ],
            [
              82.682,
              24.116513513513514
            ],
            [
              82.67244594594595,
              24.112554054054055
            ],
            [
              82.66848648648649,
              24.103
            ],
            [
              82.67244594594595,
              24.09344594594595
            ],
            [
              82.682,
              24.08948648648649
            ],
            [
              82.69155405405405,
              24.09344594594595
            ],
            [
              82.69551351351352,
              24.103
            ]
          ]
        ]
      },
      "properties": {
        "name": "NTPC Singrauli Super Thermal Power Station",
        "category": "power_plant",
        "source": "OSM_Industrial",
        "center": [
          82.682,
          24.103
        ],
        "h3_res8": "883ca54d61fffff",
        "buffer_radius_meters": 1500.0,
        "description": "2,000 MW coal-fired base load thermal power complex",
        "corridor": "Central_MP_UP",
        "capacity_mw": 2000,
        "expected_baseline_frp_mw": 25.0
      }
    },
    {
      "type": "Feature",
      "geometry": {
        "type": "Polygon",
        "coordinates": [
          [
            [
              76.91001801801801,
              29.4678
            ],
            [
              76.90473873873873,
              29.48053873873874
            ],
            [
              76.892,
              29.48581801801802
            ],
            [
              76.87926126126126,
              29.48053873873874
            ],
            [
              76.87398198198198,
              29.4678
            ],
            [
              76.87926126126126,
              29.45506126126126
            ],
            [
              76.892,
              29.44978198198198
            ],
            [
              76.90473873873873,
              29.45506126126126
            ],
            [
              76.91001801801801,
              29.4678
            ]
          ]
        ]
      },
      "properties": {
        "name": "IOCL Panipat Refinery & Petrochemical Complex",
        "category": "refinery",
        "source": "VIIRS_Nightfire/OSM",
        "center": [
          76.892,
          29.4678
        ],
        "h3_res8": "883d12c1c7fffff",
        "buffer_radius_meters": 2000.0,
        "description": "Major northern refinery located in prime agricultural residue burning zone",
        "corridor": "Northern_Haryana",
        "capacity_mmtpa": 15.0,
        "high_stubble_risk": true,
        "expected_baseline_frp_mw": 40.0
      }
    },
    {
      "type": "Feature",
      "geometry": {
        "type": "Polygon",
        "coordinates": [
          [
            [
              74.94121621621622,
              29.988
            ],
            [
              74.93646486486486,
              29.999464864864866
            ],
            [
              74.925,
              30.004216216216214
            ],
            [
              74.91353513513513,
              29.999464864864866
            ],
            [
              74.90878378378378,
              29.988
            ],
            [
              74.91353513513513,
              29.976535135135133
            ],
            [
              74.925,
              29.971783783783785
            ],
            [
              74.93646486486486,
              29.976535135135133
            ],
            [
              74.94121621621622,
              29.988
            ]
          ]
        ]
      },
      "properties": {
        "name": "HMEL Guru Gobind Singh Refinery (Bathinda)",
        "category": "refinery",
        "source": "VIIRS_Nightfire",
        "center": [
          74.925,
          29.988
        ],
        "h3_res8": "88424b8e67fffff",
        "buffer_radius_meters": 1800.0,
        "description": "Bathinda inland refinery surrounded by intense seasonal crop burning",
        "corridor": "Northern_Punjab",
        "high_stubble_risk": true,
        "expected_baseline_frp_mw": 35.0
      }
    },
    {
      "type": "Feature",
      "geometry": {
        "type": "Polygon",
        "coordinates": [
          [
            [
              80.28051351351351,
              13.167
            ],
            [
              80.27655405405405,
              13.176554054054053
            ],
            [
              80.267,
              13.180513513513514
            ],
            [
              80.25744594594595,
              13.176554054054053
            ],
            [
              80.25348648648648,
              13.167
            ],
            [
              80.25744594594595,
              13.157445945945947
            ],
            [
              80.267,
              13.153486486486486
            ],
            [
              80.27655405405405,
              13.157445945945947
            ],
            [
              80.28051351351351,
              13.167
            ]
          ]
        ]
      },
      "properties": {
        "name": "CPCL Manali Refinery (Chennai)",
        "category": "refinery",
        "source": "OSM_Industrial",
        "center": [
          80.267,
          13.167
        ],
        "h3_res8": "88618eb355fffff",
        "buffer_radius_meters": 1500.0,
        "description": "Coastal petrochemical cluster in North Chennai",
        "corridor": "Southern_TamilNadu",
        "expected_baseline_frp_mw": 30.0
      }
    },
    {
      "type": "Feature",
      "geometry": {
        "type": "Polygon",
        "coordinates": [
          [
            [
              76.38241441441441,
              9.9725
            ],
            [
              76.37819099099099,
              9.98269099099099
            ],
            [
              76.368,
              9.986914414414414
            ],
            [
              76.357809009009,
              9.98269099099099
            ],
            [
              76.35358558558558,
              9.9725
            ],
            [
              76.357809009009,
              9.96230900900901
            ],
            [
              76.368,
              9.958085585585586
            ],
            [
              76.37819099099099,
              9.96230900900901
            ],
            [
              76.38241441441441,
              9.9725
            ]
          ]
        ]
      },
      "properties": {
        "name": "BPCL Kochi Refinery (Ambalamugal)",
        "category": "refinery",
        "source": "OSM_Industrial",
        "center": [
          76.368,
          9.9725
        ],
        "h3_res8": "886031a401fffff",
        "buffer_radius_meters": 1600.0,
        "description": "Major petrochemical crude refining complex in Kerala",
        "corridor": "Southern_Kerala",
        "expected_baseline_frp_mw": 35.0
      }
    },
    {
      "type": "Feature",
      "geometry": {
        "type": "Polygon",
        "coordinates": [
          [
            [
              83.26861261261261,
              17.697
            ],
            [
              83.26491711711712,
              17.705917117117117
            ],
            [
              83.256,
              17.709612612612613
            ],
            [
              83.24708288288288,
              17.705917117117117
            ],
            [
              83.24338738738739,
              17.697
            ],
            [
              83.24708288288288,
              17.68808288288288
            ],
            [
              83.256,
              17.684387387387385
            ],
            [
              83.26491711711712,
              17.68808288288288
            ],
            [
              83.26861261261261,
              17.697
            ]
          ]
        ]
      },
      "properties": {
        "name": "HPCL Visakhapatnam Refinery",
        "category": "refinery",
        "source": "OSM_Industrial",
        "center": [
          83.256,
          17.697
        ],
        "h3_res8": "883c930027fffff",
        "buffer_radius_meters": 1400.0,
        "description": "East coast marine crude refinery and petrochemical terminal",
        "corridor": "Southern_AndhraPradesh",
        "expected_baseline_frp_mw": 32.0
      }
    }
  ]
}